GPS BIIR-2  (PRN 13)    
1 24876U 97035A   22064.65771985  .00000005  00000+0  00000+0 0  9996
2 24876  55.4959 159.7229 0056241  53.0880 307.4539  2.00563479180571
GPS BIIR-4  (PRN 20)    
1 26360U 00025A   22064.61759354 -.00000031  00000+0  00000+0 0  9991
2 26360  53.9750  83.1558 0051051 182.7986 233.9760  2.00553159159893
GPS BIIR-6  (PRN 22)    
1 26605U 00071A   22064.78922365  .00000004  00000+0  00000+0 0  9995
2 26605  55.0778 156.7551 0132370 253.2277  60.5218  2.00564682156138
GPS BIIR-8  (PRN 16)    
1 27663U 03005A   22064.56813814 -.00000011  00000+0  00000+0 0  9993
2 27663  55.5836 277.1841 0126221  40.1007 322.9029  2.00570733139933
GPS BIIR-9  (PRN 21)    
1 27704U 03010A   22064.55807309 -.00000094  00000+0  00000+0 0  9997
2 27704  54.9863  27.5132 0247274 302.7836 272.1573  2.00575395138726
GPS BIIR-11 (PRN 19)    
1 28190U 04009A   22064.66588216 -.00000095  00000+0  00000+0 0  9992
2 28190  56.0621 338.1361 0088113 116.0255 116.0256  2.00562400131564
GPS BIIR-13 (PRN 02)    
1 28474U 04045A   22064.86302233 -.00000092  00000+0  00000+0 0  9999
2 28474  55.3155  27.6012 0208383 277.5762   4.6692  2.00560429127059
GPS BIIRM-1 (PRN 17)    
1 28874U 05038A   22064.68256535 -.00000093  00000+0  00000+0 0  9990
2 28874  56.1325 335.5648 0138117 274.2672 350.1397  2.00552982120451
GPS BIIRM-2 (PRN 31)    
1 29486U 06042A   22064.52972319  .00000018  00000+0  00000+0 0  9990
2 29486  54.7302 213.4047 0103755  20.6377  52.5590  2.00560461113015
GPS BIIRM-3 (PRN 12)    
1 29601U 06052A   22064.37527504 -.00000010  00000+0  00000+0 0  9998
2 29601  55.5875 276.1256 0084922  71.4130 289.5379  2.00573255112023
GPS BIIRM-4 (PRN 15)    
1 32260U 07047A   22064.18550060  .00000001  00000+0  00000+0 0  9999
2 32260  53.2850 144.8645 0137392  61.3748 300.0528  2.00554385105426
GPS BIIRM-5 (PRN 29)    
1 32384U 07062A   22064.61132781 -.00000093  00000+0  00000+0 0  9999
2 32384  56.2483 336.3155 0017116 133.1799 305.0012  2.00555981104130
GPS BIIRM-6 (PRN 07)    
1 32711U 08012A   22064.60199470  .00000018  00000+0  00000+0 0  9992
2 32711  54.4881 212.3613 0158254 229.4596 129.1068  2.00561733102373
GPS BIIRM-8 (PRN 05)    
1 35752U 09043A   22064.86553157 -.00000023  00000+0  00000+0 0  9996
2 35752  54.9924  89.6980 0056698  56.4018 152.1426  2.00563173 91980
GPS BIIF-1  (PRN 25)    
1 36585U 10022A   22064.60913925 -.00000005  00000+0  00000+0 0  9995
2 36585  54.8682 271.7072 0103426  55.8487  83.3379  2.00560036 86213
GPS BIIF-2  (PRN 01)    
1 37753U 11036A   22064.80258611 -.00000085  00000+0  00000+0 0  9993
2 37753  56.5604  32.7395 0113290  49.8444 313.8034  2.00564776 77903
GPS BIIF-3  (PRN 24)    
1 38833U 12053A   22064.28276563  .00000012  00000+0  00000+0 0  9990
2 38833  53.5413 207.6164 0122135  45.6829 315.2628  2.00560601 68058
GPS BIIF-4  (PRN 27)    
1 39166U 13023A   22064.64132561 -.00000089  00000+0  00000+0 0  9992
2 39166  55.7639 331.9798 0101923  36.0877 324.6342  2.00566582 64502
GPS BIIF-5  (PRN 30)    
1 39533U 14008A   22064.63530253  .00000017  00000+0  00000+0 0  9993
2 39533  53.6379 213.0969 0056847 205.4016 154.2720  2.00574990 58309
GPS BIIF-6  (PRN 06)    
1 39741U 14026A   22064.91716917 -.00000085  00000+0  00000+0 0  9994
2 39741  56.5242  32.2612 0028816 303.8135  55.8986  2.00563369 57168
GPS BIIF-7  (PRN 09)    
1 40105U 14045A   22064.51018507  .00000003  00000+0  00000+0 0  9996
2 40105  54.6683 150.9545 0019864 109.5842 250.6739  2.00570701 54698
GPS BIIF-8  (PRN 03)    
1 40294U 14068A   22064.38490073 -.00000017  00000+0  00000+0 0  9993
2 40294  55.7367  92.0459 0037278  52.2362 308.1612  2.00564281 53827
GPS BIIF-9  (PRN 26)    
1 40534U 15013A   22064.51701531 -.00000005  00000+0  00000+0 0  9997
2 40534  53.7708 268.9987 0068266  19.8369 340.4438  2.00558943 50446
GPS BIIF-10 (PRN 08)    
1 40730U 15033A   22064.68023149 -.00000089  00000+0  00000+0 0  9999
2 40730  55.2650 330.8565 0073242   5.0967 355.0178  2.00557404 48619
GPS BIIF-11 (PRN 10)    
1 41019U 15062A   22064.72898681 -.00000019  00000+0  00000+0 0  9991
2 41019  55.7269  91.8729 0076740 217.8028 141.7129  2.00563101 46451
GPS BIIF-12 (PRN 32)    
1 41328U 16007A   22064.32758599  .00000004  00000+0  00000+0 0  9996
2 41328  54.8887 151.6083 0058782 228.1015 131.4378  2.00575090 44455
GPS BIII-1  (PRN 04)    
1 43873U 18109A   22064.71845819  .00000003  00000+0  00000+0 0  9992
2 43873  55.0696 153.9887 0017734 193.7323 345.5650  2.00566610 23693
GPS BIII-2  (PRN 18)    
1 44506U 19056A   22064.60128660 -.00000087  00000+0  00000+0 0  9997
2 44506  55.6318  33.1791 0021202 183.5950 174.1144  2.00570594 18688
GPS BIII-3  (PRN 23)    
1 45854U 20041A   22064.62677678 -.00000020  00000+0  00000+0 0  9997
2 45854  55.4440  90.4471 0019781 177.5786 137.2967  2.00560244 12654
GPS BIII-4  (PRN 14)    
1 46826U 20078A   22064.47904941 -.00000009  00000+0  00000+0 0  9993
2 46826  54.6366 274.3115 0015066 181.6351 359.0945  2.00566271 10122
GPS BIII-5 (PRN 11)     
1 48859U 21054A   22064.86097951 -.00000085  00000+0  00000+0 0  9997
2 48859  55.1352  35.2195 0002914 208.2965  72.0713  2.00551568  5377
